NORAD_CAT_ID,OBJECT_NAME,OBJECT_TYPE,EPOCH,MEAN_MOTION,ECCENTRICITY,INCLINATION,RA_OF_ASC_NODE,ARG_OF_PERICENTER,MEAN_ANOMALY,BSTAR,MEAN_MOTION_DOT,MEAN_MOTION_DDOT,TLE_LINE0,TLE_LINE1,TLE_LINE2,SEMIMAJOR_AXIS,PERIOD,APOGEE,PERIGEE,DECAYED
52699.0,STARLINK-3987,PAYLOAD,2023-12-02 04:11:31,15.08924333,0.0001498,53.2169,258.4979,82.3548,277.7615,0.0033105,0.00052917,0.0,0 STARLINK-3987,1 52699U 22053AV  23336.17466491  .00052917  00000-0  33105-2 0  9996,2 52699  53.2169 258.4979 0001498  82.3548 277.7615 15.08924333 85731,6917.623,95.432,540.524,538.451,0.0
52699.0,STARLINK-3987,PAYLOAD,2023-12-03 02:26:55,15.08826939,0.000137,53.2168,254.3368,98.659,261.4557,0.00061491,9.508e-05,0.0,0 STARLINK-3987,1 52699U 22053AV  23337.10203365  .00009508  00000-0  61491-3 0  9997,2 52699  53.2168 254.3368 0001370  98.6590 261.4557 15.08826939 85876,6917.92,95.438,540.733,538.838,0.0
52699.0,STARLINK-3987,PAYLOAD,2023-12-04 00:42:20,15.08824407,0.0001649,53.2168,250.1748,84.9396,275.1784,0.00023049,3.381e-05,0.0,0 STARLINK-3987,1 52699U 22053AV  23338.02940781  .00003381  00000-0  23049-3 0  9999,2 52699  53.2168 250.1748 0001649  84.9396 275.1784 15.08824407 86012,6917.928,95.439,540.934,538.652,0.0
52699.0,STARLINK-3987,PAYLOAD,2023-12-04 18:11:35,15.08843177,0.0001673,53.2176,246.9002,90.2255,269.8929,0.00058681,9.064e-05,0.0,0 STARLINK-3987,1 52699U 22053AV  23338.75804766  .00009064  00000-0  58681-3 0  9995,2 52699  53.2176 246.9002 0001673  90.2255 269.8929 15.08843177 86126,6917.871,95.437,540.893,538.578,0.0
52699.0,STARLINK-3987,PAYLOAD,2023-12-05 03:43:53,15.08859011,0.0001693,53.2177,245.1153,88.5271,271.5915,0.0007542,0.00011742,0.0,0 STARLINK-3987,1 52699U 22053AV  23339.15548182  .00011742  00000-0  75420-3 0  9993,2 52699  53.2177 245.1153 0001693  88.5271 271.5915 15.08859011 86180,6917.822,95.436,540.858,538.516,0.0
52699.0,STARLINK-3987,PAYLOAD,2023-12-05 18:02:21,15.08846579,0.000179,53.2185,242.4292,127.2229,232.8926,0.00021952,3.208e-05,0.0,0 STARLINK-3987,1 52699U 22053AV  23339.75164016  .00003208  00000-0  21952-3 0  9998,2 52699  53.2185 242.4292 0001790 127.2229 232.8926 15.08846579 86272,6917.86,95.437,540.964,538.487,0.0
52699.0,STARLINK-3987,PAYLOAD,2023-12-06 03:34:40,15.08852037,0.0001402,53.2173,240.6555,91.5369,268.5784,0.00037048,5.615e-05,0.0,0 STARLINK-3987,1 52699U 22053AV  23340.14908036  .00005615  00000-0  37048-3 0  9998,2 52699  53.2173 240.6555 0001402  91.5369 268.5784 15.08852037 86767,6917.844,95.437,540.678,538.739,0.0
52699.0,STARLINK-3987,PAYLOAD,2023-12-06 22:39:18,15.08839943,0.0001458,53.2169,237.0853,89.5556,270.5603,0.00012288,1.668e-05,0.0,0 STARLINK-3987,1 52699U 22053AV  23340.94396335  .00001668  00000-0  12288-3 0  9992,2 52699  53.2169 237.0853 0001458  89.5556 270.5603 15.08839943 86886,6917.881,95.438,540.754,538.737,0.0
52699.0,STARLINK-3987,PAYLOAD,2023-12-07 00:14:41,15.08841549,0.0001465,53.2169,236.7881,88.2309,271.8851,7.7195e-05,9.41e-06,0.0,0 STARLINK-3987,1 52699U 22053AV  23341.01020290  .00000941  00000-0  77195-4 0  9997,2 52699  53.2169 236.7881 0001465  88.2309 271.8851 15.08841549 86461,6917.876,95.437,540.754,538.727,0.0
52699.0,STARLINK-3987,PAYLOAD,2023-12-07 19:19:19,15.08837604,0.0001439,53.2167,233.2198,91.4471,268.6686,2.2113e-05,6.4e-07,0.0,0 STARLINK-3987,1 52699U 22053AV  23341.80508482  .00000064  00000-0  22113-4 0  9994,2 52699  53.2167 233.2198 0001439  91.4471 268.6686 15.08837604 86589,6917.888,95.438,540.748,538.757,0.0
52699.0,STARLINK-3987,PAYLOAD,2023-12-10 22:02:27,15.08833263,0.0001356,53.2166,219.2437,99.5614,260.5532,-1.9304e-05,-5.95e-06,0.0,0 STARLINK-3987,1 52699U 22053AV  23344.91837159 -.00000595  00000-0 -19304-4 0  9994,2 52699  53.2166 219.2437 0001356  99.5614 260.5532 15.08833263 87482,6917.901,95.438,540.704,538.828,0.0
52699.0,STARLINK-3987,PAYLOAD,2023-12-11 21:53:15,15.08832676,0.0001393,53.2174,214.7827,92.8202,267.2949,-1.5181e-06,-3.12e-06,0.0,0 STARLINK-3987,1 52699U 22053AV  23345.91198022 -.00000312  00000-0 -15181-5 0  9991,2 52699  53.2174 214.7827 0001393  92.8202 267.2949 15.08832676 87634,6917.903,95.438,540.731,538.804,0.0
52699.0,STARLINK-3987,PAYLOAD,2023-12-12 20:08:38,15.08837604,0.0001338,53.2164,210.6208,84.2131,275.9014,0.00018834,2.711e-05,0.0,0 STARLINK-3987,1 52699U 22053AV  23346.83933618  .00002711  00000-0  18834-3 0  9990,2 52699  53.2164 210.6208 0001338  84.2131 275.9014 15.08837604 87349,6917.888,95.438,540.678,538.827,0.0
52699.0,STARLINK-3987,PAYLOAD,2023-12-12 21:44:01,15.08840405,0.0001387,53.2168,210.3218,86.6633,273.4517,0.00021461,3.129e-05,0.0,0 STARLINK-3987,1 52699U 22053AV  23346.90557461  .00003129  00000-0  21461-3 0  9990,2 52699  53.2168 210.3218 0001387  86.6633 273.4517 15.08840405 87780,6917.879,95.438,540.704,538.785,0.0
52699.0,STARLINK-3987,PAYLOAD,2023-12-13 19:59:24,15.0886173,0.0001508,53.2169,206.1566,107.8751,252.2406,0.00024706,3.648e-05,0.0,0 STARLINK-3987,1 52699U 22053AV  23347.83291848  .00003648  00000-0  24706-3 0  9998,2 52699  53.2169 206.1566 0001508 107.8751 252.2406 15.08861730 87496,6917.814,95.436,540.722,538.636,0.0
52699.0,STARLINK-3987,PAYLOAD,2023-12-14 19:50:11,15.08848264,0.000133,53.2151,201.6992,99.9841,260.1301,-1.3924e-05,-5.1e-06,0.0,0 STARLINK-3987,1 52699U 22053AV  23348.82652620 -.00000510  00000-0 -13924-4 0  9995,2 52699  53.2151 201.6992 0001330  99.9841 260.1301 15.08848264 87640,6917.855,95.437,540.64,538.8,0.0
52699.0,STARLINK-3987,PAYLOAD,2023-12-14 21:25:34,15.08848073,0.0001325,53.215,201.4018,100.8633,259.2509,-2.2956e-05,-6.53e-06,0.0,0 STARLINK-3987,1 52699U 22053AV  23348.89276559 -.00000653  00000-0 -22956-4 0  9998,2 52699  53.2150 201.4018 0001325 100.8633 259.2509 15.08848073 88087,6917.856,95.437,540.637,538.804,0.0
52699.0,STARLINK-3987,PAYLOAD,2023-12-15 19:41:00,15.08816373,0.0001657,53.2152,197.2378,109.9877,250.1293,0.00043131,6.579e-05,0.0,0 STARLINK-3987,1 52699U 22053AV  23349.82013997  .00006579  00000-0  43131-3 0  9995,2 52699  53.2152 197.2378 0001657 109.9877 250.1293 15.08816373 87793,6917.953,95.439,540.964,538.671,0.0
52699.0,STARLINK-3987,PAYLOAD,2023-12-16 19:31:46,15.08838579,0.0001547,53.2154,192.7767,108.4471,251.6689,0.00012022,1.626e-05,0.0,0 STARLINK-3987,1 52699U 22053AV  23350.81373175  .00001626  00000-0  12022-3 0  9996,2 52699  53.2154 192.7767 0001547 108.4471 251.6689 15.08838579 87943,6917.885,95.438,540.82,538.68,0.0
52699.0,STARLINK-3987,PAYLOAD,2023-12-16 21:07:09,15.0883905,0.0001433,53.2153,192.4809,97.9149,262.2006,0.00011146,1.486e-05,0.0,0 STARLINK-3987,1 52699U 22053AV  23350.87997190  .00001486  00000-0  11146-3 0  9991,2 52699  53.2153 192.4809 0001433  97.9149 262.2006 15.08839050 88389,6917.883,95.438,540.74,538.757,0.0
52699.0,STARLINK-3987,PAYLOAD,2023-12-17 20:57:56,15.08844473,0.0001581,53.2156,188.0215,73.5928,286.5238,0.00019523,2.821e-05,0.0,0 STARLINK-3987,1 52699U 22053AV  23351.87357363  .00002821  00000-0  19523-3 0  9995,2 52699  53.2156 188.0215 0001581  73.5928 286.5238 15.08844473 88531,6917.867,95.437,540.825,538.638,0.0
52699.0,STARLINK-3987,PAYLOAD,2023-12-18 19:13:20,15.08841819,0.0001591,53.2154,183.8589,74.3431,285.7736,8.0268e-05,9.9e-06,0.0,0 STARLINK-3987,1 52699U 22053AV  23352.80093489  .00000990  00000-0  80268-4 0  9995,2 52699  53.2154 183.8589 0001591  74.3431 285.7736 15.08841819 88248,6917.875,95.437,540.84,538.639,0.0
52699.0,STARLINK-3987,PAYLOAD,2023-12-19 19:04:07,15.08845125,0.0001442,53.2155,179.3973,86.2957,273.82,0.00011444,1.534e-05,0.0,0 STARLINK-3987,1 52699U 22053AV  23353.79453134  .00001534  00000-0  11444-3 0  9995,2 52699  53.2155 179.3973 0001442  86.2957 273.8200 15.08845125 88828,6917.865,95.437,540.727,538.732,0.0
52699.0,STARLINK-3987,PAYLOAD,2023-12-20 17:19:31,15.08838981,0.0001461,53.2162,175.2302,95.7284,264.3875,3.2855e-05,2.35e-06,0.0,0 STARLINK-3987,1 52699U 22053AV  23354.72189381  .00000235  00000-0  32855-4 0  9996,2 52699  53.2162 175.2302 0001461  95.7284 264.3875 15.08838981 88539,6917.884,95.438,540.759,538.738,0.0
52699.0,STARLINK-3987,PAYLOAD,2023-12-21 15:34:55,15.08840269,0.0001541,53.2174,171.0672,105.5822,254.534,7.5417e-05,9.12e-06,0.0,0 STARLINK-3987,1 52699U 22053AV  23355.64925232  .00000912  00000-0  75417-4 0  9994,2 52699  53.2174 171.0672 0001541 105.5822 254.5340 15.08840269 89107,6917.88,95.438,540.811,538.679,0.0
52699.0,STARLINK-3987,PAYLOAD,2023-12-22 13:50:19,15.08839046,0.0001383,53.2168,166.9055,91.143,268.972,9.7846e-05,1.27e-05,0.0,0 STARLINK-3987,1 52699U 22053AV  23356.57661462  .00001270  00000-0  97846-4 0  9997,2 52699  53.2168 166.9055 0001383  91.1430 268.9720 15.08839046 89244,6917.883,95.438,540.705,538.792,0.0
52699.0,STARLINK-3987,PAYLOAD,2023-12-22 17:01:05,15.0884067,0.0001348,53.2166,166.3115,90.9061,269.2086,0.00010335,1.357e-05,0.0,0 STARLINK-3987,1 52699U 22053AV  23356.70909344  .00001357  00000-0  10335-3 0  9999,2 52699  53.2166 166.3115 0001348  90.9061 269.2086 15.08840670 88839,6917.878,95.438,540.676,538.811,0.0
52699.0,STARLINK-3987,PAYLOAD,2023-12-23 16:51:53,15.0883957,0.0001327,53.2166,161.8524,84.681,275.4334,4.9725e-05,5.04e-06,0.0,0 STARLINK-3987,1 52699U 22053AV  23357.70269711  .00000504  00000-0  49725-4 0  9996,2 52699  53.2166 161.8524 0001327  84.6810 275.4334 15.08839570 89419,6917.882,95.438,540.665,538.829,0.0
52699.0,STARLINK-3987,PAYLOAD,2023-12-24 13:31:53,15.08842454,0.0001341,53.2164,157.9894,68.3802,291.7333,0.00010707,1.417e-05,0.0,0 STARLINK-3987,1 52699U 22053AV  23358.56381446  .00001417  00000-0  10707-3 0  9992,2 52699  53.2164 157.9894 0001341  68.3802 291.7333 15.08842454 89548,6917.873,95.437,540.666,538.81,0.0
52699.0,STARLINK-3987,PAYLOAD,2023-12-24 18:18:02,15.08846922,0.0001315,53.2167,157.0956,78.3836,281.7304,0.00013482,1.859e-05,0.0,0 STARLINK-3987,1 52699U 22053AV  23358.76253038  .00001859  00000-0  13482-3 0  9992,2 52699  53.2167 157.0956 0001315  78.3836 281.7304 15.08846922 89147,6917.859,95.437,540.634,538.815,0.0
